{
    "links": {
        "self": "http://www.neowsapp.com/rest/v1/neo/3831463?api_key=iIulBulltgU6a56xZRHN4H3l9WmuAYTsLGpBGhQ2"
    },
    "id": "3831463",
    "neo_reference_id": "3831463",
    "name": "(2018 TN2)",
    "designation": "2018 TN2",
    "nasa_jpl_url": "http://ssd.jpl.nasa.gov/sbdb.cgi?sstr=3831463",
    "absolute_magnitude_h": 22.3,
    "estimated_diameter": {
        "kilometers": {
            "estimated_diameter_min": 0.0921626549,
            "estimated_diameter_max": 0.2060819612
        },
        "meters": {
            "estimated_diameter_min": 92.1626548503,
            "estimated_diameter_max": 206.0819612321
        },
        "miles": {
            "estimated_diameter_min": 0.057267201,
            "estimated_diameter_max": 0.1280533543
        },
        "feet": {
            "estimated_diameter_min": 302.370924539,
            "estimated_diameter_max": 676.1219416887
        }
    },
    "is_potentially_hazardous_asteroid": false,
    "close_approach_data": [
        {
            "close_approach_date": "2017-01-09",
            "close_approach_date_full": "2017-Jan-09 13:05",
            "epoch_date_close_approach": 1483967100000,
            "relative_velocity": {
                "kilometers_per_second": "8.455495806",
                "kilometers_per_hour": "30439.7849015433",
                "miles_per_hour": "18914.0985684062"
            },
            "miss_distance": {
                "astronomical": "1.9212930722",
                "lunar": "747.3830050858",
                "kilometers": "287421351.246876214",
                "miles": "178595346.0885671932"
            },
            "orbiting_body": "Juptr"
        },
        {
            "close_approach_date": "2018-09-29",
            "close_approach_date_full": "2018-Sep-29 03:03",
            "epoch_date_close_approach": 1538190180000,
            "relative_velocity": {
                "kilometers_per_second": "23.461179662",
                "kilometers_per_hour": "84460.2467832194",
                "miles_per_hour": "52480.3127859399"
            },
            "miss_distance": {
                "astronomical": "0.2102859863",
                "lunar": "81.8012486707",
                "kilometers": "31458335.641329181",
                "miles": "19547303.3470214578"
            },
            "orbiting_body": "Earth"
        }
    ],
    "orbital_data": {
        "orbit_id": "4",
        "orbit_determination_date": "2018-11-02 06:38:53",
        "first_observation_date": "2018-10-04",
        "last_observation_date": "2018-11-01",
        "data_arc_in_days": 28,
        "observations_used": 47,
        "orbit_uncertainty": "7",
        "minimum_orbit_intersection": ".205859",
        "jupiter_tisserand_invariant": "2.908",
        "epoch_osculation": "2459000.5",
        "eccentricity": ".5387874700796063",
        "semi_major_axis": "2.564354257828919",
        "inclination": "42.04397276373323",
        "ascending_node_longitude": "187.0173602369109",
        "orbital_period": "1499.910892659455",
        "perihelion_distance": "1.18271231486541",
        "perihelion_argument": "158.8393745550238",
        "aphelion_distance": "3.945996200792429",
        "perihelion_time": "2458372.831609790427",
        "mean_anomaly": "150.6493629596897",
        "mean_motion": ".2400142580214834",
        "equinox": "J2000",
        "orbit_class": {
            "orbit_class_type": "AMO",
            "orbit_class_description": "Near-Earth asteroid orbits similar to that of 1221 Amor",
            "orbit_class_range": "1.017 AU < q (perihelion) < 1.3 AU"
        }
    },
    "is_sentry_object": false
}